STARLINK-1560
1 26036C 20055K   21325.17151354 -.00018203  00000-0 -12194-2 0  3259
2 26036  53.0530 332.4596 0001508  65.5356 336.3967 15.06421925    16
